CORVUS BC1              
1 42847U 17042Y   18181.32968659  .00000230  00000-0  28025-4 0  9992
2 42847  97.5964  83.7801 0010088 144.2186 215.9711 14.91925137 52327
SILU-1 (SILKROAD 1)     
1 42903U 17021F   18181.62879839  .00022494  00000-0  16670-3 0  9994
2 42903  42.7765 246.7567 0012292  29.3744  95.6560 15.72337650 52044
MIRATA                  
1 43015U 17073C   18181.35651406  .00000592  00000-0  52763-4 0  9993
2 43015  97.7045 111.8228 0256821 228.4718 129.4208 14.78164577 33086
MAKERSAT 0              
1 43016U 17073D   18181.34126229  .00000350  00000-0  33463-4 0  9991
2 43016  97.7074 111.9293 0258216 228.5628 129.3145 14.78168962 33084
ASTERIA                 
1 43020U 98067NH  18181.79408250  .00009430  00000-0  12208-3 0  9995
2 43020  51.6422 305.9796 0002076 220.1129 139.9711 15.59657328 34618
DELLINGR (RBLE)         
1 43021U 98067NJ  18181.79591186  .00005028  00000-0  73031-4 0  9998
2 43021  51.6403 307.4637 0002084 207.3159 152.7724 15.57738030 34590
OSIRIS-3U               
1 43027U 98067NL  18181.88244449  .00024101  00000-0  24356-3 0  9999
2 43027  51.6382 301.2751 0002632 223.5397 136.5390 15.65183016 34567
AEROCUBE 7B             
1 43042U 17071F   18181.62745469  .00002496  00000-0  73884-4 0  9996
2 43042  51.6400 336.0363 0004656 316.8043  43.2575 15.38946645 31675
AEROCUBE 7C             
1 43043U 17071G   18181.56249409  .00002601  00000-0  76562-4 0  9997
2 43043  51.6402 336.3568 0004712 319.1472  40.9158 15.38951776 31631
CHEFSAT                 
1 43044U 17071H   18181.56350606  .00004302  00000-0  11634-3 0  9998
2 43044  51.6407 335.6350 0004649 318.2714  41.7916 15.39901528 31649
ASGARDIA 1              
1 43049U 17071N   18181.60703044  .00001990  00000-0  60708-4 0  9993
2 43049  51.6405 335.9109 0002332 346.0136  14.0783 15.39082031 31645
ISARA                   
1 43050U 17071P   18181.56673787  .00004106  00000-0  11207-3 0  9991
2 43050  51.6401 335.6526 0002156 340.4728  19.6174 15.39738155 31642
FAUNA                   
1 43052U 17071R   18181.52943784  .00001884  00000-0  57768-4 0  9999
2 43052  51.6402 336.1508 0002179 342.1563  17.9345 15.39218909 31621
CORVUS BC3              
1 43118U 18004H   18181.42018278  .00000778  00000-0  36885-4 0  9997
2 43118  97.5323 244.0361 0011959  54.5422 305.6928 15.22274235 25727
MICROMAS-2A             
1 43131U 18004W   18181.44111250  .00001567  00000-0  69938-4 0  9990
2 43131  97.5327 244.1749 0011176  58.1515 302.0808 15.22856481 25739
GOMX4-B                 
1 43196U 18015E   18181.41052603  .00002340  00000-0  10000-3 0  9991
2 43196  97.3436 310.0592 0020204 109.5661 250.9934 15.23664486 22543
GOMX4-A                 
1 43197U 18015F   18181.69030075  .00000638  00000-0  29391-4 0  9993
2 43197  97.3488 310.3472 0021010 108.8318   4.4114 15.23676367 22596
UBAKUSAT                
1 43466U 98067NP  18181.79066931  .00008250  00000-0  12334-3 0  9994
2 43466  51.6407 310.4233 0000333 144.1563 215.9451 15.55950302  7826
1KUNS-PF                
1 43467U 98067NQ  18181.79152248  .00006205  00000-0  95039-4 0  9994
2 43467  51.6410 310.4302 0002598 176.3258 183.7753 15.55798234  7822
BATSU-CS1 (IRAZU)       
1 43468U 98067NR  18181.59441010  .00008607  00000-0  12747-3 0  9993
2 43468  51.6406 311.3627 0000259 125.9676 234.1340 15.56142178107773
